     2.11           N: GPS NAV DATA                         RINEX VERSION / TYPE
teqc  2019Feb25                         20221121 12:25:22UTCPGM / RUN BY / DATE
OSX ker:10.11.6|Core i5|gcc 4.3 -m64|OSX ker:10.10+|=+      COMMENT
    4.6566D-09  1.4901D-08 -5.9605D-08 -1.1921D-07          ION ALPHA
    7.9872D+04  8.1920D+04 -6.5536D+04 -4.5875D+05          ION BETA
   -2.793967723846D-09-7.993605777301D-15   233472     1541 DELTA-UTC: A0,A1,T,W
                                                            END OF HEADER
 7 09  7 20  0  0  0.0 1.493794843554D-05-6.821210263297D-13 0.000000000000D+00
    2.400000000000D+01-1.185000000000D+02 4.400897600764D-09 4.554456364646D-01
   -6.118789315224D-06 2.850708202459D-03 2.397224307060D-06 5.153663200378D+03
    8.640000000000D+04 2.980232238770D-08 1.744874699778D+00-3.725290298462D-09
    9.678487931414D-01 3.365000000000D+02 2.884641511869D+00-8.269630177576D-09
   -7.750322832055D-11 1.000000000000D+00 1.541000000000D+03 0.000000000000D+00
    2.000000000000D+00 0.000000000000D+00-1.071020960808D-08 2.400000000000D+01
    7.921800000000D+04 4.000000000000D+00
25 09  7 20  0  0  0.0 5.160062573850D-04 1.716671249596D-11 0.000000000000D+00
    6.300000000000D+01-9.959375000000D+01 4.413040963727D-09-1.367476859049D+00
   -4.967674612999D-06 1.128752424847D-02 1.866370439529D-06 5.153649223328D+03
    8.640000000000D+04-2.570450305939D-07 1.650428603250D+00 7.823109626770D-08
    9.700248603776D-01 3.515000000000D+02-1.209321179024D+00-8.383920652519D-09
   -1.821504444400D-11 1.000000000000D+00 1.541000000000D+03 0.000000000000D+00
    2.800000000000D+00 0.000000000000D+00-7.450580596924D-09 6.300000000000D+01
    7.921800000000D+04 4.000000000000D+00
21 09  7 20  0  0  0.0 1.774169504642D-06-2.160049916711D-12 0.000000000000D+00
    6.800000000000D+01-8.656250000000D+00 5.554517082218D-09-5.041894363481D-01
   -5.643814802170D-07 1.551008655224D-02 6.873160600662D-06 5.153588043213D+03
    8.640000000000D+04 1.471489667892D-07-1.379800621389D+00 1.955777406693D-07
    9.333422027062D-01 2.309062500000D+02-2.577952322862D+00-8.552141945325D-09
   -7.486026108750D-10 1.000000000000D+00 1.541000000000D+03 0.000000000000D+00
    2.000000000000D+00 0.000000000000D+00-1.210719347000D-08 6.800000000000D+01
    7.921800000000D+04 4.000000000000D+00
 3 09  7 20  0  0  0.0 4.223338328302D-04 5.115907697473D-12 0.000000000000D+00
    6.000000000000D+01 1.175000000000D+01 5.682022393326D-09 1.832290586943D+00
    5.271285772324D-07 1.209460047539D-02 8.001923561096D-06 5.153637987137D+03
    8.640000000000D+04-3.781169652939D-07-2.559596546979D+00-1.676380634308D-07
    9.264943299906D-01 2.098437500000D+02 9.144298508623D-01-8.397135488684D-09
    6.239545616406D-10 1.000000000000D+00 1.541000000000D+03 0.000000000000D+00
    2.800000000000D+00 0.000000000000D+00-4.190951585770D-09 6.000000000000D+01
    7.921800000000D+04 4.000000000000D+00
19 09  7 20  0  0  0.0 1.843692734838D-05-1.364242052659D-12 0.000000000000D+00
    8.100000000000D+01 1.612500000000D+01 5.126999274385D-09 2.563197240414D+00
    9.965151548386D-07 5.762907327153D-03 6.889924407005D-06 5.153623352051D+03
    8.640000000000D+04-8.940696716309D-08-2.370925520805D+00 2.477318048477D-07
    9.573966925809D-01 2.452500000000D+02-3.215272979083D-01-8.111409301327D-09
    4.643050544549D-10 1.000000000000D+00 1.541000000000D+03 0.000000000000D+00
    2.000000000000D+00 0.000000000000D+00-1.443549990654D-08 8.100000000000D+01
    7.921800000000D+04 4.000000000000D+00
 6 09  7 20  0  0  0.0 1.971204765141D-04 1.057287590811D-11 0.000000000000D+00
    5.600000000000D+01 2.037500000000D+01 5.505943630367D-09-2.061671084465D+00
    1.231208443642D-06 5.969430902041D-03 7.245689630508D-06 5.153693698883D+03
    8.640000000000D+04-3.539025783539D-08-2.491572604480D+00 9.872019290924D-08
    9.338973742656D-01 2.242812500000D+02-1.308063153509D+00-8.224271145333D-09
    5.864529995500D-10 1.000000000000D+00 1.541000000000D+03 0.000000000000D+00
    2.000000000000D+00 0.000000000000D+00-4.656612873077D-09 5.600000000000D+01
    7.921800000000D+04 4.000000000000D+00
18 09  7 20  0  0  0.0-3.861030563712D-05 3.183231456205D-12 0.000000000000D+00
    6.800000000000D+01 1.193750000000D+02 4.376253717105D-09-1.785526636020D+00
    6.090849637985D-06 1.070847897790D-02 1.118332147598D-05 5.153617052078D+03
    8.640000000000D+04 8.940696716309D-08-3.216255035989D-01-2.272427082062D-07
    9.418850883803D-01 1.564062500000D+02-2.405550733415D+00-7.698534960597D-09
   -3.117987019532D-10 1.000000000000D+00 1.541000000000D+03 0.000000000000D+00
    2.000000000000D+00 0.000000000000D+00-1.071020960808D-08 6.800000000000D+01
    7.921800000000D+04 4.000000000000D+00
15 09  7 20  0  0  0.0-3.094431012869D-04-2.387423592154D-12 0.000000000000D+00
    9.000000000000D+01 1.193437500000D+02 4.618406660890D-09 2.847482048234D+00
    6.135553121567D-06 1.493750954978D-03 9.927898645401D-07 5.153640594482D+03
    8.640000000000D+04 1.862645149231D-08 6.819001017963D-01-5.401670932770D-08
    9.562314271286D-01 3.569687500000D+02-4.900354493834D-01-8.444280309598D-09
    2.657253542419D-10 1.000000000000D+00 1.541000000000D+03 0.000000000000D+00
    2.000000000000D+00 0.000000000000D+00-9.778887033463D-09 9.000000000000D+01
    7.921800000000D+04 4.000000000000D+00
22 09  7 20  0  0  0.0 1.951442100108D-04-6.821210263297D-13 0.000000000000D+00
    5.300000000000D+01 1.145312500000D+02 4.367681931484D-09-2.809951448134D+00
    5.964189767838D-06 5.183815141208D-03 1.162104308605D-05 5.153666791916D+03
    8.640000000000D+04-6.705522537231D-08-3.160533144663D-01-1.490116119385D-08
    9.395532686449D-01 1.434375000000D+02-1.898685851041D+00-7.732822103079D-09
   -3.382283742837D-10 1.000000000000D+00 1.541000000000D+03 0.000000000000D+00
    2.000000000000D+00 0.000000000000D+00-1.769512891769D-08 5.300000000000D+01
    7.930200000000D+04 4.000000000000D+00
28 09  7 20  0  0  0.0-2.599600702524D-05-1.136868377216D-13 0.000000000000D+00
    9.000000000000D+00-9.840625000000D+01 4.036596711884D-09-2.571285489184D+00
   -5.258247256279D-06 1.493872411083D-02 1.185201108456D-05 5.153657787323D+03
    8.640000000000D+04 1.881271600723D-07 2.822477682725D+00-7.264316082001D-08
    9.675347792386D-01 1.482500000000D+02-2.021770002630D+00-7.422094874329D-09
    5.468084910542D-10 1.000000000000D+00 1.541000000000D+03 0.000000000000D+00
    2.000000000000D+00 0.000000000000D+00-1.071020960808D-08 9.000000000000D+00
    7.930200000000D+04 4.000000000000D+00
11 09  7 20  0  0  0.0-1.133512705564D-05-1.705302565824D-12 0.000000000000D+00
    5.300000000000D+01-1.450000000000D+01 6.817426830335D-09 2.752529812772D-01
   -5.848705768585D-07 9.513203171082D-03 5.150213837624D-06 5.153681251526D+03
    8.640000000000D+04-2.235174179077D-08-1.613820882095D+00 7.078051567078D-08
    8.887741254669D-01 2.365625000000D+02 7.059405140103D-01-9.237170479513D-09
   -5.453798601174D-10 1.000000000000D+00 1.541000000000D+03 0.000000000000D+00
    2.000000000000D+00 0.000000000000D+00-1.164153218269D-08 5.300000000000D+01
    8.083200000000D+04 4.000000000000D+00
26 09  7 20  0  0  0.0 6.475904956460D-05 1.136868377216D-13 0.000000000000D+00
    7.400000000000D+01 1.021250000000D+02 3.785157667010D-09 2.315530844754D-01
    5.457550287247D-06 2.027210139204D-02 2.138316631317D-06 5.154910085678D+03
    8.640000000000D+04-3.073364496231D-07 7.534020047547D-01 2.793967723846D-07
    9.925763248109D-01 3.564375000000D+02 1.026147286971D+00-8.319989418098D-09
    2.739399821284D-10 1.000000000000D+00 1.541000000000D+03 0.000000000000D+00
    2.000000000000D+00 0.000000000000D+00-6.519258022308D-09 7.400000000000D+01
    8.440200000000D+04 4.000000000000D+00
27 09  7 20  0  0  0.0 6.704591214657D-05 3.183231456205D-12 0.000000000000D+00
    5.100000000000D+01-1.351250000000D+02 4.262320399896D-09 2.829838240933D+00
   -7.057562470436D-06 2.130863419734D-02 7.525086402893D-07 5.153769216537D+03
    8.640000000000D+04 3.073364496231D-07 1.687010375165D+00-7.823109626770D-08
    9.747745091910D-01 3.735937500000D+02-1.570406532273D+00-7.928187383685D-09
   -2.032227507576D-10 1.000000000000D+00 1.541000000000D+03 0.000000000000D+00
    2.000000000000D+00 0.000000000000D+00-4.190951585770D-09 5.100000000000D+01
    8.491200000000D+04 4.000000000000D+00
